ONEWEB-0113             
1 48050U 21025J   22348.87975117 -.00000165  00000+0 -48724-3 0  9992
2 48050  87.9042 214.6433 0001580  88.5709 271.5601 13.13467890 85516
ONEWEB-0112             
1 48051U 21025K   22348.86704101  .00000130  00000+0  31984-3 0  9995
2 48051  87.9037 214.6066 0001425  81.5800 278.5490 13.13467899 85529
ONEWEB-0156             
1 48052U 21025L   22348.87761375 -.00000043  00000+0 -15180-3 0  9998
2 48052  87.9042 214.6258 0001476  82.2885 277.8412 13.13467631 85504
ONEWEB-0161             
1 48053U 21025M   22348.92630344  .00000299  00000+0  78366-3 0  9992
2 48053  87.9042 214.5981 0001570  72.1279 288.0021 13.13465235 85459
ONEWEB-0158             
1 48054U 21025N   22348.89032566 -.00000321  00000+0 -91347-3 0  9993
2 48054  87.9042 214.6305 0001568  96.2614 263.8694 13.13470328 85566
ONEWEB-0157             
1 48055U 21025P   22348.68507651  .00000178  00000+0  45257-3 0  9990
2 48055  87.9064 214.6275 0001468  69.7661 290.3626 13.13471978 85475
ONEWEB-0162             
1 48056U 21025Q   22348.87549817 -.00000013  00000+0 -69866-4 0  9995
2 48056  87.9038 214.6047 0001445  82.8603 277.2691 13.13467350 85454
ONEWEB-0155             
1 48057U 21025R   22348.66814088 -.00000200  00000+0 -58205-3 0  9990
2 48057  87.9120 214.6318 0001582  79.9096 280.2211 13.13471709 85582
ONEWEB-0149             
1 48058U 21025S   22348.91783986  .00000109  00000+0  26442-3 0  9995
2 48058  87.9037 214.5982 0000956  78.9556 281.1681 13.13471752 85433
ONEWEB-0148             
1 48059U 21025T   22348.88186391  .00000030  00000+0  47581-4 0  9990
2 48059  87.9045 214.6099 0000952  52.9042 307.2174 13.13469181 85543
ONEWEB-0160             
1 48060U 21025U   22348.89879105 -.00000269  00000+0 -77217-3 0  9999
2 48060  87.9038 214.6053 0001975 118.2733 241.8596 13.13469580 85494
ONEWEB-0163             
1 48061U 21025V   22348.88398411 -.00000162  00000+0 -47762-3 0  9999
2 48061  87.8975 214.6205 0001677  64.2041 295.9261 13.13468540 85612
ONEWEB-0159             
1 48062U 21025W   22348.72102926  .00000092  00000+0  21842-3 0  9998
2 48062  87.9043 214.6448 0001453  61.5952 298.5324 13.13467623 85511
ONEWEB-0164             
1 48063U 21025X   22348.93052988  .00000994  00000+0  26869-2 0  9998
2 48063  87.8968 214.6155 0001532  77.7264 282.4036 13.13469350 85538
ONEWEB-0167             
1 48064U 21025Y   22348.88502467 -.00000187  00000+0 -54566-3 0  9997
2 48064  87.9071 214.5893 0001480  66.4433 293.6852 13.13470193 85502
ONEWEB-0166             
1 48065U 21025Z   22348.90724977 -.00000037  00000+0 -13694-3 0  9994
2 48065  87.9037 214.5995 0001178  70.0449 290.0807 13.13471436 85580
ONEWEB-0151             
1 48066U 21025AA  22348.90937105 -.00000015  00000+0 -75362-4 0  9991
2 48066  87.9036 214.5993 0001797  83.1326 277.0008 13.13471018 85522
ONEWEB-0170             
1 48067U 21025AB  22348.68717189 -.00001599  00000+0 -44138-2 0  9998
2 48067  87.8976 214.6692 0002305  93.6845 266.4548 13.13475377 85455
ONEWEB-0168             
1 48068U 21025AC  22348.90089329 -.00000286  00000+0 -81752-3 0  9998
2 48068  87.9042 214.6326 0001427  75.8483 284.2805 13.13472014 85492
ONEWEB-0173             
1 48069U 21025AD  22348.89456896 -.00000306  00000+0 -87360-3 0  9998
2 48069  87.9041 214.6453 0001967  67.8006 292.3331 13.13467434 85735
ONEWEB-0171             
1 48070U 21025AE  22348.92842459  .00000436  00000+0  11578-2 0  9997
2 48070  87.9044 214.5975 0001417  73.8467 286.2818 13.13472505 85553
ONEWEB-0172             
1 48071U 21025AF  22348.91042046  .00000131  00000+0  32358-3 0  9993
2 48071  87.9001 214.6204 0001837  74.1856 285.9475 13.13472780 86444
ONEWEB-0174             
1 48072U 21025AG  22348.89242704 -.00000348  00000+0 -98761-3 0  9996
2 48072  87.9030 214.6194 0000812  71.9447 288.1771 13.13473017 85760
ONEWEB-0175             
1 48073U 21025AH  22348.91996133  .00000023  00000+0  27936-4 0  9997
2 48073  87.9029 214.5958 0001970  87.0627 273.0728 13.13471392 85422
ONEWEB-0177             
1 48074U 21025AJ  22348.85646677  .00000397  00000+0  10513-2 0  9991
2 48074  87.8993 214.6286 0001773  58.5892 301.5410 13.13467118 85601
ONEWEB-0178             
1 48075U 21025AK  22348.64593255 -.00000120  00000+0 -36233-3 0  9996
2 48075  87.9040 214.6530 0001537  69.8064 290.3230 13.13467715 85622
ONEWEB-0108             
1 48076U 21025AL  22348.68293221 -.00002681  00000+0 -73780-2 0  9992
2 48076  87.9032 214.6424 0001283  91.2696 268.8580 13.13483053 85557
ONEWEB-0169             
1 48077U 21025AM  22348.86492720  .00000198  00000+0  50697-3 0  9990
2 48077  87.8973 214.6257 0001089  86.5010 273.6244 13.13468586 84235
ONEWEB-0176             
1 48210U 21031A   22348.80094353 -.00000163  00000+0 -47373-3 0  9991
2 48210  87.9082 184.3175 0001551  80.6227 279.5078 13.14499976 80107
ONEWEB-0184             
1 48211U 21031B   22348.77557419  .00000246  00000+0  62995-3 0  9992
2 48211  87.9084 184.2951 0002783  88.4255 271.7194 13.14500297 80074
ONEWEB-0179             
1 48212U 21031C   22348.81998304  .00000367  00000+0  95622-3 0  9997
2 48212  87.9081 184.2859 0001810  71.6634 288.4692 13.14501580 80124
ONEWEB-0180             
1 48213U 21031D   22348.77768926  .00000217  00000+0  55000-3 0  9998
2 48213  87.9084 184.2904 0001456  77.7737 282.3555 13.14504940 80007
ONEWEB-0218             
1 48214U 21031E   22348.79884466 -.00000156  00000+0 -45636-3 0  9997
2 48214  87.9084 184.2973 0002833  76.2209 283.9236 13.14501350 80164
ONEWEB-0209             
1 48215U 21031F   22348.78826143  .00000033  00000+0  54482-4 0  9997
2 48215  87.9083 184.3287 0001492  78.2538 281.8759 13.14505193 80166
ONEWEB-0198             
1 48216U 21031G   22348.84959230  .00000348  00000+0  90335-3 0  9994
2 48216  87.9080 184.3284 0002057  73.2769 286.8587 13.14503446 80286
ONEWEB-0189             
1 48217U 21031H   22348.78616072  .00000354  00000+0  92068-3 0  9994
2 48217  87.9079 184.3282 0001936  70.6777 289.4562 13.14503056 80018
ONEWEB-0196             
1 48218U 21031J   22348.84112328  .00000229  00000+0  58384-3 0  9991
2 48218  87.9085 184.3010 0001671  83.8828 276.2492 13.14501921 80020
ONEWEB-0183             
1 48219U 21031K   22348.81363736 -.00000117  00000+0 -35128-3 0  9999
2 48219  87.9081 184.3259 0001394  82.1908 277.9380 13.14505210 80114
ONEWEB-0185             
1 48220U 21031L   22348.84219407  .00000464  00000+0  12181-2 0  9995
2 48220  87.9084 184.2977 0001423  80.2985 279.8306 13.14503019 80048
ONEWEB-0187             
1 48221U 21031M   22348.58842718 -.00000189  00000+0 -54397-3 0  9996
2 48221  87.9083 184.3721 0001434  76.3776 283.7513 13.14505450 80025
ONEWEB-0192             
1 48222U 21031N   22348.63814780 -.00000055  00000+0 -18339-3 0  9999
2 48222  87.9084 184.3087 0001767  82.1370 277.9961 13.14501893 79944
ONEWEB-0219             
1 48223U 21031P   22348.84747148  .00000317  00000+0  82066-3 0  9993
2 48223  87.9082 184.3057 0001365  77.8465 282.2817 13.14503603 80177
ONEWEB-0202             
1 48224U 21031Q   22348.82633030 -.00000013  00000+0 -68557-4 0  9991
2 48224  87.9083 184.3266 0002612  69.4777 290.6632 13.14504092 80159
ONEWEB-0204             
1 48225U 21031R   22348.81046547 -.00002208  00000+0 -59921-2 0  9993
2 48225  87.9083 184.3555 0001333 111.2036 248.9236 13.14511975 80046
ONEWEB-0205             
1 48226U 21031S   22348.83689995  .00000232  00000+0  59219-3 0  9990
2 48226  87.9088 184.3036 0001741  72.3850 287.7470 13.14503683 80060
ONEWEB-0206             
1 48227U 21031T   22348.80939677 -.00000488  00000+0 -13521-2 0  9993
2 48227  87.9086 184.2955 0001238  76.5895 283.5372 13.14502618 80011
ONEWEB-0182             
1 48228U 21031U   22348.80305475 -.00000319  00000+0 -89570-3 0  9998
2 48228  87.9088 184.3707 0001425  76.8872 283.2416 13.14501878 80222
ONEWEB-0186             
1 48229U 21031V   22348.58739937 -.00000242  00000+0 -68823-3 0  9991
2 48229  87.9085 184.3258 0001608  77.8511 282.2799 13.14501419 80140
ONEWEB-0181             
1 48230U 21031W   22348.56413774 -.00000051  00000+0 -17119-3 0  9999
2 48230  87.9086 184.3986 0001668  83.1764 276.9555 13.14504409 79990
ONEWEB-0188             
1 48231U 21031X   22348.60431914  .00000087  00000+0  20145-3 0  9991
2 48231  87.9083 184.3921 0001458  79.6478 280.4816 13.14504843 79909
ONEWEB-0220             
1 48232U 21031Y   22348.79461170 -.00000063  00000+0 -20347-3 0  9999
2 48232  87.9088 184.3126 0001418  68.3671 291.7609 13.14500860 80191
ONEWEB-0165             
1 48233U 21031Z   22348.82420329 -.00000036  00000+0 -13109-3 0  9993
2 48233  87.9085 184.3299 0001592  75.1196 285.0110 13.14503863 80156
ONEWEB-0199             
1 48234U 21031AA  22348.80728355 -.00000241  00000+0 -68335-3 0  9991
2 48234  87.9085 184.3090 0001525  78.1206 282.0095 13.14504190 80059
ONEWEB-0203             
1 48235U 21031AB  22348.79670449 -.00000146  00000+0 -42790-3 0  9991
2 48235  87.9083 184.3068 0001943  94.3243 265.8109 13.14504637 80060
ONEWEB-0197             
1 48236U 21031AC  22348.78404290  .00000080  00000+0  18153-3 0  9991
2 48236  87.9085 184.3189 0001557  81.9654 278.1652 13.14501013 79979
ONEWEB-0194             
1 48237U 21031AD  22348.82844621  .00000042  00000+0  78857-4 0  9999
2 48237  87.9082 184.2999 0001806 100.4403 259.6930 13.14502090 80152
ONEWEB-0193             
1 48238U 21031AE  22348.84536147  .00000432  00000+0  11307-2 0  9991
2 48238  87.9081 184.3072 0001771  83.0593 277.0738 13.14503545 80103
ONEWEB-0191             
1 48239U 21031AF  22348.77980401  .00000136  00000+0  33305-3 0  9994
2 48239  87.9083 184.3017 0001673  90.0838 270.0483 13.14504584 79951
ONEWEB-0195             
1 48240U 21031AG  22348.83372922  .00000005  00000+0 -21092-4 0  9993
2 48240  87.9083 184.2850 0001890  72.5858 287.5478 13.14499619 79943
